STARLINK-3190           
1 49766C 21115AU  22010.16010682 -.00042893  00000-0 -10412-2 0   103
2 49766  53.2155 137.2630 0002333  24.5917 284.0106 15.40494364    18
STARLINK-3192           
1 49767C 21115AV  22010.15994308 -.00050214  00000-0 -12185-2 0   104
2 49767  53.2158 137.2614 0002012  29.8628 279.8986 15.40511453    12
STARLINK-3196           
1 49768C 21115AW  22010.16047383 -.00050402  00000-0 -12232-2 0   100
2 49768  53.2153 137.2647 0002452  21.8283 286.6963 15.40508499    18
STARLINK-3208           
1 49769C 21115AX  22010.16028069 -.00058422  00000-0 -14180-2 0   105
2 49769  53.2157 137.2655 0002470  21.7500 286.7732 15.40511963    18
STARLINK-3191           
1 49770C 21115AY  22010.16009260 -.00047806  00000-0 -11602-2 0   109
2 49770  53.2153 137.2686 0002493  21.5708 283.7890 15.40504139    12
STARLINK-3201           
1 49771C 21115AZ  22010.16025733 -.00044731  00000-0 -10858-2 0   109
2 49771  53.2157 137.2717 0002120  27.4127 277.8248 15.40496839    17
STARLINK-3317           
1 50156C 21125A   22010.15022528 -.00068266  00000-0 -48546-3 0   102
2 50156  53.2185 253.6529 0001066 110.3236  97.5998 15.73266333    11
STARLINK-3313           
1 50157C 21125B   22010.15010399 -.00060502  00000-0 -43061-3 0   108
2 50157  53.2186 253.6525 0001222  96.6513 111.5554 15.73238234    11
STARLINK-3309           
1 50158C 21125C   22010.13384768 -.00054123  00000-0 -38454-3 0   103
2 50158  53.2182 253.7257 0001152  86.3305  32.4450 15.73273066    16
STARLINK-3297           
1 50159C 21125D   22010.13974337 -.00096718  00000-0 -68706-3 0   100
2 50159  53.2189 253.6964 0000943  89.6452  63.4565 15.73319637    10
STARLINK-3288           
1 50160C 21125E   22010.13994272 -.00097471  00000-0 -69347-3 0   101
2 50160  53.2170 253.6982 0001116  98.0353  54.4528 15.73284503    11
STARLINK-3304           
1 50161C 21125F   22010.14992876 -.00055715  00000-0 -39616-3 0   102
2 50161  53.2186 253.6513 0001090  93.5894 114.5359 15.73256721    11
STARLINK-3303           
1 50162C 21125G   22010.15728763 -.00059359  00000-0 -36215-3 0   106
2 50162  53.2192 253.6882 0001184  83.2496 130.2555 15.76776092    10
STARLINK-3306           
1 50163C 21125H   22010.13264958 -.00105996  00000-0 -75481-3 0   103
2 50163  53.2176 253.6477 0001210  96.6229  55.8217 15.73271514    18
STARLINK-3307           
1 50164C 21125J   22010.13927293 -.00020824  00000-0 -14837-3 0   106
2 50164  53.2183 253.6928 0000998  99.7786  52.8114 15.73174489    18
STARLINK-3298           
1 50165C 21125K   22010.13353389 -.00023755  00000-0 -16903-3 0   108
2 50165  53.2181 253.7238 0000881  88.1136  30.8922 15.73208131    19
STARLINK-3305           
1 50166C 21125L   22010.13302565 -.00102009  00000-0 -72582-3 0   104
2 50166  53.2179 253.7176 0001083 103.2988  16.5535 15.73287096    15
STARLINK-3271           
1 50167C 21125M   22010.13924019 -.00061685  00000-0 -43832-3 0   109
2 50167  53.2180 253.6916 0001250  85.3531  67.6996 15.73277564    16
STARLINK-3296           
1 50168C 21125N   22010.13284896 -.00051088  00000-0 -36344-3 0   108
2 50168  53.2187 253.7179 0001121  96.9077  22.9129 15.73240339    18
STARLINK-3301           
1 50169C 21125P   22010.13733963 -.00084879  00000-0 -60349-3 0   109
2 50169  53.2183 253.6800 0001161  85.7239  66.9631 15.73286823    19
STARLINK-3245           
1 50170C 21125Q   22010.13543600 -.00075054  00000-0 -53408-3 0   101
2 50170  53.2177 253.6996 0001110  91.5254  44.8123 15.73257387    10
STARLINK-3286           
1 50171C 21125R   22010.13318787 -.00068669  00000-0 -48854-3 0   101
2 50171  53.2179 253.7190 0001137  88.6706  31.1607 15.73256397    14
STARLINK-3287           
1 50172C 21125S   22010.13509226 -.00062917  00000-0 -44791-3 0   108
2 50172  53.2174 253.6967 0001141  94.6761  41.6145 15.73235554    19
STARLINK-3289           
1 50173C 21125T   22010.13230140 -.00099260  00000-0 -70635-3 0   102
2 50173  53.2175 253.6452 0001211  96.9442  55.3455 15.73280925    17
STARLINK-3292           
1 50174C 21125U   22010.13749226 -.00061944  00000-0 -44042-3 0   104
2 50174  53.2176 253.6794 0001267  88.7164  63.8659 15.73263527    18
STARLINK-3291           
1 50175C 21125V   22010.13523134 -.00072858  00000-0 -51853-3 0   107
2 50175  53.2179 253.7028 0001103  98.6242  35.6281 15.73251942    15
STARLINK-3293           
1 50176C 21125W   22010.13773345 -.00058270  00000-0 -41422-3 0   102
2 50176  53.2181 253.6809 0001189  91.3067  61.6580 15.73264979    19
STARLINK-3282           
1 50177C 21125X   22010.13819424 -.00052747  00000-0 -37470-3 0   103
2 50177  53.2183 253.6852 0000997  87.0969  65.6653 15.73275529    17
STARLINK-3284           
1 50178C 21125Y   22010.13627451 -.00021252  00000-0 -15121-3 0   107
2 50178  53.2177 253.6717 0000886  83.1894  69.1288 15.73207512    12
STARLINK-3283           
1 50179C 21125Z   22010.13785091 -.00039557  00000-0 -28135-3 0   109
2 50179  53.2183 253.6830 0001213  96.1047  56.6943 15.73233450    14
STARLINK-3265           
1 50180C 21125AA  22010.13714742 -.00095257  00000-0 -67745-3 0   105
2 50180  53.2175 253.6772 0001303  98.1870  54.3294 15.73291000    17
STARLINK-3285           
1 50181C 21125AB  22010.13679478 -.00066527  00000-0 -47322-3 0   109
2 50181  53.2175 253.6756 0001172  85.5723  66.8761 15.73258136    11
STARLINK-3277           
1 50182C 21125AC  22010.13645457 -.00065698  00000-0 -46674-3 0   107
2 50182  53.2174 253.6726 0001053 101.1684  51.0912 15.73286277    18
STARLINK-3281           
1 50183C 21125AD  22010.13664524 -.00078815  00000-0 -56103-3 0   107
2 50183  53.2174 253.6739 0001212  96.2922  56.2917 15.73253522    18
STARLINK-3279           
1 50185C 21125AF  22010.13697633 -.00053791  00000-0 -38217-3 0   108
2 50185  53.2181 253.6776 0001224  87.6614  64.6722 15.73272802    13
STARLINK-3274           
1 50186C 21125AG  22010.13575490 -.00051748  00000-0 -36767-3 0   103
2 50186  53.2183 253.6697 0001274 100.0035  52.0154 15.73269917    13
STARLINK-3272           
1 50187C 21125AH  22010.13523207 -.00042113  00000-0 -29965-3 0   101
2 50187  53.2191 253.6680 0001035  96.1873  55.8233 15.73227154    11
STARLINK-3275           
1 50188C 21125AJ  22010.13540678 -.00048747  00000-0 -34640-3 0   108
2 50188  53.2181 253.6671 0001229  98.1335  53.8544 15.73263846    12
STARLINK-3276           
1 50189C 21125AK  22010.13610335 -.00054790  00000-0 -38965-3 0   106
2 50189  53.2180 253.6715 0001225  86.5914  65.6783 15.73250901    15
STARLINK-3268           
1 50190C 21125AL  22010.13478009 -.00081075  00000-0 -57669-3 0   106
2 50190  53.2174 253.6612 0001016  84.8575  67.3870 15.73273505    19
STARLINK-3273           
1 50191C 21125AM  22010.13558510 -.00050715  00000-0 -36063-3 0   105
2 50191  53.2178 253.6680 0001123  98.7535  53.3582 15.73250120    11
STARLINK-3259           
1 50192C 21125AN  22010.13457277 -.00068221  00000-0 -48541-3 0   109
2 50192  53.2173 253.6600 0000992  90.7586  61.2886 15.73253369    13
STARLINK-3261           
1 50193C 21125AP  22010.13508674 -.00074770  00000-0 -53204-3 0   106
2 50193  53.2171 253.6632 0000997 102.0262  50.1311 15.73258442    17
STARLINK-3269           
1 50194C 21125AQ  22010.13187462 -.00066052  00000-0 -46982-3 0   104
2 50194  53.2168 253.6707 0000879 103.3911  34.2916 15.73259419    10
STARLINK-3266           
1 50195C 21125AR  22010.13488972 -.00077400  00000-0 -55090-3 0   104
2 50195  53.2185 253.6645 0001185  99.0509  52.9150 15.73254591    19
STARLINK-3263           
1 50196C 21125AS  22010.13422610 -.00047136  00000-0 -33535-3 0   105
2 50196  53.2173 253.6556 0001299  88.1984  64.7019 15.73233610    14
STARLINK-3267           
1 50197C 21125AT  22010.13441877 -.00056723  00000-0 -40328-3 0   102
2 50197  53.2180 253.6582 0001169  98.6655  54.3314 15.73259865    12
STARLINK-3264           
1 50198C 21125AU  22010.13368954 -.00072856  00000-0 -51795-3 0   102
2 50198  53.2173 253.6524 0001060  97.5092  55.0985 15.73277749    17
STARLINK-3270           
1 50199C 21125AV  22010.13196973 -.00020360  00000-0 -14479-3 0   104
2 50199  53.2169 253.6415 0000942  63.9645  88.2979 15.73218806    11
STARLINK-3235           
1 50200C 21125AW  22010.13403461 -.00053433  00000-0 -37974-3 0   102
2 50200  53.2183 253.6560 0001259 101.9213  50.7107 15.73265651    14
STARLINK-3255           
1 50201C 21125AX  22010.13334245 -.00058431  00000-0 -41537-3 0   109
2 50201  53.2176 253.6511 0001120  92.3236  60.1722 15.73264723    15
STARLINK-3256           
1 50202C 21125AY  22010.10766258 -.00565719  00000-0 -25510-2 0   104
2 50202  53.2172 252.7207 0001113  71.9868  85.1364 15.83892045    14
STARLINK-3257           
1 50203C 21125AZ  22010.13386567 -.00017038  00000-0 -12113-3 0   101
2 50203  53.2177 253.6544 0000957  95.3400  57.3226 15.73220543    16
STARLINK-3254           
1 50204C 21125BA  22010.13212816 -.00047210  00000-0 -33597-3 0   101
2 50204  53.2169 253.6416 0001134  76.1084  76.1526 15.73227508    19
STARLINK-3260           
1 50205C 21125BB  22010.11251285  .00002881  00000-0  89517-5 0   101
2 50205  53.2158 251.2722 0001045  93.4711  58.1178 15.90882613    18
STARLINK-3258           
1 50206C 21125BC  22010.13283304 -.00068578  00000-0 -48763-3 0   104
2 50206  53.2176 253.6468 0000932  97.9484  54.4626 15.73268985    10
STARLINK-3262           
1 50207C 21125BD  22010.13316962 -.00047306  00000-0 -33616-3 0   109
2 50207  53.2185 253.6510 0001038  95.9022  56.6657 15.73262262    13
STARLINK-3321           
1 73321C 22001A   22010.12090550 -.00816454  00000-0 -14639-2 0   107
2 73321  53.2170 184.3487 0067120 172.2307  95.0034 15.97388964    11
STARLINK-3323           
1 73323C 22001B   22010.12069583 -.00815270  00000-0 -14536-2 0   102
2 73323  53.2169 184.3493 0067786 172.3901  93.7700 15.97398102    17
